<?xml version='1.0' encoding='UTF-8'?>
<kml xmlns="http://www.opengis.net/kml/2.2"><Document><Placemark><name>Manhan Rail Trail</name><MultiGeometry><Polygon><outerBoundaryIs><LinearRing><coordinates>-72.684801,42.256088,0 -72.687166,42.254827,0 -72.688959,42.253868,0 -72.690102,42.253265,0 -72.692915,42.251780,0 -72.692927,42.251773,0 -72.693160,42.251661,0 -72.693396,42.251550,0 -72.693534,42.251645,0 -72.693400,42.251703,0 -72.693267,42.251762,0 -72.693138,42.251824,0 -72.693009,42.251888,0 -72.692887,42.251953,0 -72.692767,42.252019,0 -72.690289,42.253332,0 -72.690156,42.253403,0 -72.688953,42.254040,0 -72.688315,42.254380,0 -72.688457,42.254436,0 -72.688377,42.254479,0 -72.687357,42.255026,0 -72.687216,42.254967,0 -72.686921,42.255125,0 -72.686623,42.255284,0 -72.686322,42.255446,0 -72.686021,42.255607,0 -72.685722,42.255768,0 -72.685421,42.255930,0 -72.685118,42.256091,0 -72.684821,42.256251,0 -72.684521,42.256412,0 -72.684164,42.256603,0 -72.684050,42.256668,0 -72.683749,42.256833,0 -72.683690,42.256707,0 -72.683937,42.256560,0 -72.684186,42.256424,0 -72.684801,42.256088,0</coordinates></LinearRing></outerBoundaryIs></Polygon><Polygon><outerBoundaryIs><LinearRing><coordinates>-72.679037,42.261140,0 -72.679102,42.261112,0 -72.679410,42.260935,0 -72.679441,42.260949,0 -72.679559,42.260874,0 -72.679674,42.260795,0 -72.679787,42.260714,0 -72.679894,42.260629,0 -72.679987,42.260542,0 -72.680086,42.260457,0 -72.680184,42.260369,0 -72.680278,42.260282,0 -72.680371,42.260192,0 -72.680404,42.260201,0 -72.680474,42.260132,0 -72.680542,42.260061,0 -72.680606,42.259988,0 -72.680667,42.259913,0 -72.680820,42.259724,0 -72.680971,42.259533,0 -72.680950,42.259518,0 -72.681413,42.258945,0 -72.681882,42.258361,0 -72.681843,42.258331,0 -72.681985,42.258156,0 -72.682194,42.257913,0 -72.682413,42.257692,0 -72.682663,42.257482,0 -72.683165,42.257083,0 -72.683523,42.256819,0 -72.683574,42.256943,0 -72.683448,42.257074,0 -72.683130,42.257389,0 -72.683007,42.257519,0 -72.682887,42.257651,0 -72.682769,42.257785,0 -72.682654,42.257920,0 -72.682543,42.258056,0 -72.682434,42.258193,0 -72.682329,42.258332,0 -72.682226,42.258473,0 -72.682167,42.258560,0 -72.682155,42.258577,0 -72.682054,42.258501,0 -72.681622,42.259038,0 -72.681154,42.259617,0 -72.681127,42.259606,0 -72.681071,42.259675,0 -72.680978,42.259799,0 -72.680878,42.259922,0 -72.680774,42.260042,0 -72.680665,42.260159,0 -72.680574,42.260256,0 -72.680611,42.260266,0 -72.680456,42.260417,0 -72.680369,42.260497,0 -72.680280,42.260576,0 -72.680188,42.260654,0 -72.680095,42.260730,0 -72.679998,42.260805,0 -72.679900,42.260878,0 -72.679801,42.260950,0 -72.679698,42.261020,0 -72.679628,42.260989,0 -72.679500,42.261072,0 -72.679369,42.261151,0 -72.679237,42.261229,0 -72.679102,42.261305,0 -72.677867,42.261872,0 -72.677793,42.261968,0 -72.677328,42.262179,0 -72.677463,42.261905,0 -72.678180,42.261579,0 -72.678104,42.261560,0 -72.678432,42.261413,0 -72.679037,42.261140,0</coordinates></LinearRing></outerBoundaryIs></Polygon><Polygon><outerBoundaryIs><LinearRing><coordinates>-72.672438,42.264874,0 -72.672928,42.264378,0 -72.673019,42.264288,0 -72.673151,42.264157,0 -72.673288,42.264029,0 -72.673431,42.263904,0 -72.673578,42.263783,0 -72.673629,42.263741,0 -72.673748,42.263658,0 -72.673869,42.263576,0 -72.673992,42.263499,0 -72.674120,42.263424,0 -72.674250,42.263351,0 -72.674383,42.263281,0 -72.674520,42.263215,0 -72.674658,42.263152,0 -72.674663,42.263150,0 -72.674972,42.263002,0 -72.675189,42.262980,0 -72.677142,42.262082,0 -72.677040,42.262289,0 -72.676419,42.262574,0 -72.675796,42.262861,0 -72.675285,42.263096,0 -72.674821,42.263315,0 -72.674723,42.263358,0 -72.674626,42.263403,0 -72.674529,42.263450,0 -72.674436,42.263499,0 -72.674343,42.263550,0 -72.674253,42.263603,0 -72.674166,42.263657,0 -72.674080,42.263714,0 -72.673731,42.263970,0 -72.673485,42.264186,0 -72.673502,42.264195,0 -72.673562,42.264233,0 -72.672941,42.264838,0 -72.672163,42.265595,0 -72.672053,42.265538,0 -72.671971,42.265617,0 -72.671485,42.266095,0 -72.671357,42.266058,0 -72.671777,42.265636,0 -72.672045,42.265367,0 -72.671977,42.265331,0 -72.672438,42.264874,0</coordinates></LinearRing></outerBoundaryIs></Polygon><Polygon><outerBoundaryIs><LinearRing><coordinates>-72.670300,42.267259,0 -72.670294,42.267250,0 -72.670233,42.267158,0 -72.671248,42.266155,0 -72.671368,42.266187,0 -72.670435,42.267124,0 -72.670300,42.267259,0</coordinates></LinearRing></outerBoundaryIs></Polygon><Polygon><outerBoundaryIs><LinearRing><coordinates>-72.669470,42.267942,0 -72.669736,42.267680,0 -72.670113,42.267287,0 -72.670201,42.267414,0 -72.669988,42.267570,0 -72.669997,42.267588,0 -72.669153,42.268406,0 -72.669098,42.268459,0 -72.669120,42.268488,0 -72.668948,42.268662,0 -72.668782,42.268827,0 -72.668619,42.268983,0 -72.668433,42.269147,0 -72.668256,42.269299,0 -72.668242,42.269311,0 -72.668167,42.269364,0 -72.668134,42.269387,0 -72.668029,42.269470,0 -72.667922,42.269553,0 -72.667747,42.269680,0 -72.667569,42.269805,0 -72.666974,42.270182,0 -72.666227,42.270617,0 -72.666204,42.270592,0 -72.665928,42.270740,0 -72.665648,42.270885,0 -72.665365,42.271025,0 -72.665079,42.271163,0 -72.664888,42.271253,0 -72.664696,42.271341,0 -72.664502,42.271428,0 -72.664308,42.271513,0 -72.664204,42.271557,0 -72.663768,42.271751,0 -72.663603,42.271825,0 -72.663439,42.271902,0 -72.663278,42.271980,0 -72.663120,42.272062,0 -72.662219,42.272572,0 -72.662246,42.272600,0 -72.661610,42.272965,0 -72.661063,42.273279,0 -72.660409,42.273658,0 -72.660354,42.273689,0 -72.659774,42.274047,0 -72.659503,42.274221,0 -72.659236,42.274397,0 -72.658959,42.274585,0 -72.658688,42.274775,0 -72.658673,42.274786,0 -72.658146,42.275184,0 -72.658159,42.275193,0 -72.658060,42.275274,0 -72.657176,42.275993,0 -72.657087,42.275960,0 -72.656932,42.275927,0 -72.656707,42.275879,0 -72.656906,42.275721,0 -72.657639,42.275136,0 -72.657966,42.274877,0 -72.658070,42.274958,0 -72.658538,42.274638,0 -72.659624,42.273886,0 -72.659561,42.273831,0 -72.659772,42.273744,0 -72.660127,42.273526,0 -72.660706,42.273170,0 -72.661894,42.272508,0 -72.661846,42.272447,0 -72.661860,42.272438,0 -72.661875,42.272425,0 -72.661891,42.272405,0 -72.661899,42.272391,0 -72.661930,42.272363,0 -72.661938,42.272359,0 -72.661957,42.272352,0 -72.661975,42.272348,0 -72.661994,42.272344,0 -72.662013,42.272338,0 -72.662034,42.272332,0 -72.662052,42.272326,0 -72.662072,42.272318,0 -72.662090,42.272310,0 -72.662107,42.272300,0 -72.662123,42.272290,0 -72.662141,42.272279,0 -72.662155,42.272270,0 -72.662168,42.272260,0 -72.662179,42.272248,0 -72.662199,42.272220,0 -72.662435,42.272106,0 -72.662573,42.272014,0 -72.663150,42.271707,0 -72.663591,42.271496,0 -72.664147,42.271236,0 -72.664223,42.271200,0 -72.664758,42.270947,0 -72.665132,42.270769,0 -72.665109,42.270726,0 -72.665424,42.270575,0 -72.665546,42.270517,0 -72.665668,42.270459,0 -72.665788,42.270398,0 -72.665907,42.270337,0 -72.666027,42.270271,0 -72.666147,42.270205,0 -72.666264,42.270138,0 -72.666379,42.270068,0 -72.666495,42.270160,0 -72.667016,42.269834,0 -72.667121,42.269770,0 -72.667224,42.269705,0 -72.667323,42.269637,0 -72.667423,42.269568,0 -72.667518,42.269497,0 -72.667613,42.269426,0 -72.667705,42.269352,0 -72.667794,42.269277,0 -72.667868,42.269214,0 -72.667941,42.269148,0 -72.668011,42.269083,0 -72.668079,42.269015,0 -72.668159,42.268937,0 -72.668259,42.268831,0 -72.668458,42.268589,0 -72.668684,42.268727,0 -72.669001,42.268407,0 -72.669056,42.268353,0 -72.669470,42.267942,0</coordinates></LinearRing></outerBoundaryIs></Polygon><Polygon><outerBoundaryIs><LinearRing><coordinates>-72.656865,42.276018,0 -72.656893,42.276030,0 -72.656903,42.276035,0 -72.656914,42.276041,0 -72.656924,42.276049,0 -72.656937,42.276060,0 -72.656951,42.276073,0 -72.656955,42.276076,0 -72.656967,42.276093,0 -72.656970,42.276098,0 -72.656981,42.276120,0 -72.656983,42.276124,0 -72.656989,42.276149,0 -72.656990,42.276173,0 -72.656989,42.276183,0 -72.656984,42.276206,0 -72.656978,42.276218,0 -72.656965,42.276242,0 -72.656947,42.276263,0 -72.656924,42.276283,0 -72.656898,42.276298,0 -72.656828,42.276338,0 -72.656760,42.276380,0 -72.656693,42.276423,0 -72.656627,42.276466,0 -72.656564,42.276511,0 -72.656501,42.276557,0 -72.656441,42.276604,0 -72.656381,42.276653,0 -72.656315,42.276708,0 -72.656252,42.276767,0 -72.655449,42.277493,0 -72.655344,42.277595,0 -72.655243,42.277701,0 -72.655149,42.277809,0 -72.655061,42.277919,0 -72.654978,42.278033,0 -72.654902,42.278149,0 -72.654832,42.278266,0 -72.654768,42.278387,0 -72.654711,42.278508,0 -72.654660,42.278631,0 -72.654196,42.279753,0 -72.654178,42.279750,0 -72.654151,42.279745,0 -72.654124,42.279741,0 -72.654098,42.279732,0 -72.654074,42.279723,0 -72.654049,42.279712,0 -72.654027,42.279701,0 -72.654011,42.279684,0 -72.653999,42.279666,0 -72.653923,42.279645,0 -72.653883,42.279636,0 -72.653845,42.279620,0 -72.653783,42.279593,0 -72.653752,42.279565,0 -72.653730,42.279552,0 -72.653707,42.279541,0 -72.653668,42.279530,0 -72.653741,42.279354,0 -72.653819,42.279180,0 -72.653904,42.279007,0 -72.653995,42.278836,0 -72.654091,42.278667,0 -72.654192,42.278499,0 -72.654299,42.278333,0 -72.654412,42.278169,0 -72.654530,42.278008,0 -72.654653,42.277848,0 -72.654726,42.277907,0 -72.654800,42.277795,0 -72.654879,42.277686,0 -72.654966,42.277580,0 -72.655057,42.277476,0 -72.655155,42.277375,0 -72.655257,42.277278,0 -72.655365,42.277183,0 -72.655478,42.277092,0 -72.654490,42.277350,0 -72.654298,42.277400,0 -72.654260,42.277410,0 -72.652175,42.277042,0 -72.651172,42.276847,0 -72.651002,42.276814,0 -72.650830,42.276782,0 -72.650658,42.276753,0 -72.650484,42.276727,0 -72.650310,42.276704,0 -72.650136,42.276682,0 -72.649961,42.276662,0 -72.649785,42.276646,0 -72.649519,42.276630,0 -72.649513,42.276665,0 -72.649490,42.276797,0 -72.649238,42.276779,0 -72.649207,42.276777,0 -72.649119,42.276612,0 -72.648971,42.276606,0 -72.648743,42.276599,0 -72.648516,42.276594,0 -72.648288,42.276591,0 -72.648060,42.276590,0 -72.647182,42.276624,0 -72.646649,42.276714,0 -72.646648,42.276768,0 -72.646593,42.276745,0 -72.646437,42.276679,0 -72.646253,42.276680,0 -72.646067,42.276684,0 -72.645883,42.276692,0 -72.645699,42.276705,0 -72.645516,42.276721,0 -72.645332,42.276741,0 -72.645151,42.276764,0 -72.644970,42.276792,0 -72.644611,42.276815,0 -72.644507,42.276841,0 -72.644405,42.276867,0 -72.644302,42.276896,0 -72.644200,42.276925,0 -72.644099,42.276956,0 -72.643998,42.276988,0 -72.643898,42.277022,0 -72.643800,42.277056,0 -72.642650,42.277490,0 -72.642613,42.277451,0 -72.642573,42.277413,0 -72.642530,42.277377,0 -72.642484,42.277343,0 -72.643102,42.277112,0 -72.643306,42.277035,0 -72.643644,42.276908,0 -72.643626,42.276863,0 -72.643848,42.276843,0 -72.644003,42.276789,0 -72.644193,42.276727,0 -72.644429,42.276661,0 -72.644552,42.276626,0 -72.644653,42.276605,0 -72.644755,42.276584,0 -72.644921,42.276553,0 -72.645087,42.276527,0 -72.645228,42.276509,0 -72.645368,42.276493,0 -72.645517,42.276480,0 -72.645666,42.276469,0 -72.645894,42.276460,0 -72.646614,42.276428,0 -72.646668,42.276395,0 -72.647409,42.276386,0 -72.647459,42.276386,0 -72.647762,42.276376,0 -72.647982,42.276371,0 -72.648204,42.276364,0 -72.648323,42.276361,0 -72.648462,42.276365,0 -72.648679,42.276372,0 -72.648917,42.276378,0 -72.649067,42.276383,0 -72.649551,42.276413,0 -72.649854,42.276441,0 -72.650109,42.276466,0 -72.650364,42.276496,0 -72.650618,42.276531,0 -72.650871,42.276570,0 -72.651048,42.276600,0 -72.651224,42.276633,0 -72.651398,42.276668,0 -72.651573,42.276704,0 -72.651824,42.276754,0 -72.652560,42.276901,0 -72.653131,42.277015,0 -72.653468,42.277089,0 -72.653485,42.277092,0 -72.653483,42.277038,0 -72.653578,42.277054,0 -72.653702,42.277072,0 -72.653828,42.277086,0 -72.653954,42.277096,0 -72.654082,42.277101,0 -72.654208,42.277100,0 -72.654335,42.277096,0 -72.654462,42.277086,0 -72.654588,42.277071,0 -72.654709,42.277052,0 -72.654827,42.277029,0 -72.654946,42.277000,0 -72.655061,42.276969,0 -72.655214,42.276921,0 -72.655565,42.276844,0 -72.655631,42.276810,0 -72.655694,42.276774,0 -72.655758,42.276737,0 -72.655819,42.276700,0 -72.655879,42.276660,0 -72.655938,42.276619,0 -72.655994,42.276578,0 -72.656049,42.276535,0 -72.656066,42.276523,0 -72.656245,42.276374,0 -72.656261,42.276360,0 -72.656703,42.275991,0 -72.656837,42.276010,0 -72.656859,42.276016,0 -72.656865,42.276018,0</coordinates></LinearRing></outerBoundaryIs><innerBoundaryIs><LinearRing><coordinates>-72.655989,42.276705,0 -72.656037,42.276667,0 -72.656203,42.276530,0 -72.656079,42.276632,0 -72.655989,42.276705,0</coordinates></LinearRing></innerBoundaryIs></Polygon><Polygon><outerBoundaryIs><LinearRing><coordinates>-72.655547,42.289359,0 -72.655616,42.289437,0 -72.655756,42.289610,0 -72.655639,42.289634,0 -72.655712,42.289977,0 -72.655538,42.290023,0 -72.655458,42.289617,0 -72.655361,42.289116,0 -72.655419,42.289198,0 -72.655481,42.289280,0 -72.655547,42.289359,0</coordinates></LinearRing></outerBoundaryIs></Polygon><Polygon><outerBoundaryIs><LinearRing><coordinates>-72.638951,42.278709,0 -72.639504,42.278493,0 -72.640206,42.278226,0 -72.640213,42.278224,0 -72.641765,42.277626,0 -72.642316,42.277415,0 -72.642360,42.277447,0 -72.642402,42.277481,0 -72.642442,42.277516,0 -72.642477,42.277554,0 -72.641627,42.277876,0 -72.640405,42.278360,0 -72.640392,42.278365,0 -72.639524,42.278696,0 -72.639438,42.278728,0 -72.639179,42.278827,0 -72.638896,42.278935,0 -72.638642,42.279031,0 -72.638387,42.279126,0 -72.638326,42.279149,0 -72.637060,42.279631,0 -72.636901,42.279485,0 -72.638112,42.279012,0 -72.638119,42.279010,0 -72.638165,42.278993,0 -72.638951,42.278709,0</coordinates></LinearRing></outerBoundaryIs></Polygon><Polygon><outerBoundaryIs><LinearRing><coordinates>-72.653691,42.279887,0 -72.653740,42.279906,0 -72.653792,42.279921,0 -72.653846,42.279930,0 -72.653901,42.279940,0 -72.653952,42.279955,0 -72.654001,42.279976,0 -72.654024,42.279986,0 -72.654048,42.279996,0 -72.654091,42.280004,0 -72.653942,42.280364,0 -72.653892,42.280356,0 -72.653750,42.280807,0 -72.653680,42.280873,0 -72.653589,42.280868,0 -72.653400,42.280856,0 -72.653425,42.280609,0 -72.653470,42.280197,0 -72.653613,42.279858,0 -72.653652,42.279871,0 -72.653691,42.279887,0</coordinates></LinearRing></outerBoundaryIs></Polygon><Polygon><outerBoundaryIs><LinearRing><coordinates>-72.629833,42.282580,0 -72.629909,42.282514,0 -72.629988,42.282447,0 -72.630068,42.282383,0 -72.630150,42.282319,0 -72.630232,42.282255,0 -72.630316,42.282193,0 -72.630401,42.282132,0 -72.630487,42.282071,0 -72.630576,42.282012,0 -72.630664,42.281954,0 -72.630754,42.281896,0 -72.630846,42.281840,0 -72.630938,42.281784,0 -72.630966,42.281771,0 -72.631131,42.281686,0 -72.631300,42.281603,0 -72.631469,42.281524,0 -72.631641,42.281447,0 -72.631816,42.281373,0 -72.631991,42.281301,0 -72.632170,42.281232,0 -72.632349,42.281165,0 -72.632398,42.281146,0 -72.632964,42.280929,0 -72.633207,42.280835,0 -72.633589,42.280689,0 -72.633569,42.280655,0 -72.633713,42.280622,0 -72.633922,42.280575,0 -72.634466,42.280367,0 -72.634864,42.280217,0 -72.635175,42.280099,0 -72.635577,42.279947,0 -72.635778,42.279870,0 -72.635808,42.279885,0 -72.635905,42.279849,0 -72.636355,42.279680,0 -72.636748,42.279534,0 -72.636910,42.279679,0 -72.635998,42.280016,0 -72.636018,42.280035,0 -72.635757,42.280121,0 -72.635195,42.280335,0 -72.635137,42.280356,0 -72.634008,42.280786,0 -72.633765,42.280986,0 -72.633751,42.280963,0 -72.633111,42.281190,0 -72.632947,42.281249,0 -72.631933,42.281720,0 -72.630876,42.282191,0 -72.630791,42.282243,0 -72.630708,42.282296,0 -72.630627,42.282352,0 -72.630548,42.282409,0 -72.630470,42.282466,0 -72.630393,42.282525,0 -72.630319,42.282585,0 -72.630248,42.282647,0 -72.630293,42.282680,0 -72.630256,42.282709,0 -72.630218,42.282682,0 -72.630118,42.282764,0 -72.629831,42.282814,0 -72.629671,42.282793,0 -72.629610,42.282787,0 -72.629683,42.282717,0 -72.629757,42.282649,0 -72.629833,42.282580,0</coordinates></LinearRing></outerBoundaryIs></Polygon><Polygon><outerBoundaryIs><LinearRing><coordinates>-72.618046,42.286958,0 -72.617940,42.286949,0 -72.617836,42.286939,0 -72.617731,42.286928,0 -72.617627,42.286915,0 -72.617522,42.286901,0 -72.617419,42.286886,0 -72.617315,42.286869,0 -72.617249,42.286699,0 -72.617353,42.286725,0 -72.617392,42.286736,0 -72.617431,42.286744,0 -72.617486,42.286756,0 -72.617540,42.286766,0 -72.617595,42.286773,0 -72.617651,42.286779,0 -72.617715,42.286784,0 -72.618080,42.286810,0 -72.618513,42.286832,0 -72.618533,42.286834,0 -72.619886,42.286921,0 -72.620052,42.286929,0 -72.620772,42.286976,0 -72.620976,42.286986,0 -72.621181,42.286994,0 -72.621385,42.286998,0 -72.621590,42.287000,0 -72.621795,42.286998,0 -72.621999,42.286992,0 -72.622204,42.286984,0 -72.622408,42.286972,0 -72.622508,42.286966,0 -72.622518,42.286965,0 -72.622667,42.286956,0 -72.622816,42.286945,0 -72.622936,42.286934,0 -72.623054,42.286922,0 -72.623173,42.286907,0 -72.623292,42.286892,0 -72.623435,42.286870,0 -72.623578,42.286847,0 -72.623721,42.286821,0 -72.623861,42.286792,0 -72.623999,42.286763,0 -72.624135,42.286731,0 -72.624195,42.286714,0 -72.624411,42.286656,0 -72.624626,42.286594,0 -72.624786,42.286540,0 -72.624943,42.286481,0 -72.625097,42.286418,0 -72.625248,42.286352,0 -72.625362,42.286298,0 -72.625475,42.286241,0 -72.625584,42.286182,0 -72.625692,42.286121,0 -72.625788,42.286063,0 -72.625883,42.286004,0 -72.625975,42.285942,0 -72.626065,42.285879,0 -72.626169,42.285802,0 -72.626296,42.285704,0 -72.626419,42.285605,0 -72.626538,42.285503,0 -72.626654,42.285398,0 -72.626658,42.285395,0 -72.627054,42.285047,0 -72.627176,42.284937,0 -72.627652,42.284510,0 -72.628053,42.284148,0 -72.628138,42.284074,0 -72.628473,42.283781,0 -72.628874,42.283431,0 -72.629486,42.282897,0 -72.629514,42.282870,0 -72.629828,42.282910,0 -72.629975,42.282884,0 -72.629909,42.282942,0 -72.629097,42.283654,0 -72.629298,42.283779,0 -72.629292,42.283780,0 -72.629275,42.283785,0 -72.629257,42.283792,0 -72.629224,42.283804,0 -72.629185,42.283824,0 -72.629134,42.283847,0 -72.629085,42.283872,0 -72.629026,42.283905,0 -72.628988,42.283928,0 -72.628923,42.283970,0 -72.628904,42.283985,0 -72.628880,42.284005,0 -72.628854,42.284026,0 -72.628831,42.284052,0 -72.628800,42.284083,0 -72.628779,42.284103,0 -72.628752,42.284130,0 -72.628716,42.284156,0 -72.628687,42.284181,0 -72.628656,42.284210,0 -72.628622,42.284239,0 -72.628590,42.284270,0 -72.628550,42.284315,0 -72.628539,42.284327,0 -72.628517,42.284348,0 -72.628492,42.284372,0 -72.628473,42.284390,0 -72.628440,42.284424,0 -72.628411,42.284459,0 -72.628389,42.284484,0 -72.628361,42.284513,0 -72.628334,42.284543,0 -72.628309,42.284574,0 -72.628281,42.284603,0 -72.628245,42.284644,0 -72.628131,42.284771,0 -72.627523,42.284980,0 -72.627063,42.285387,0 -72.626862,42.285576,0 -72.626770,42.285661,0 -72.626675,42.285743,0 -72.626577,42.285824,0 -72.626475,42.285902,0 -72.626372,42.285980,0 -72.626266,42.286055,0 -72.626158,42.286128,0 -72.626046,42.286198,0 -72.625932,42.286267,0 -72.625817,42.286334,0 -72.625698,42.286398,0 -72.625578,42.286460,0 -72.625455,42.286520,0 -72.625332,42.286578,0 -72.625204,42.286632,0 -72.625076,42.286686,0 -72.624972,42.286725,0 -72.624867,42.286763,0 -72.624761,42.286798,0 -72.624652,42.286830,0 -72.624544,42.286862,0 -72.624434,42.286891,0 -72.624323,42.286918,0 -72.624210,42.286943,0 -72.624044,42.286981,0 -72.623876,42.287017,0 -72.623707,42.287050,0 -72.623537,42.287079,0 -72.623366,42.287105,0 -72.623194,42.287128,0 -72.623022,42.287147,0 -72.622849,42.287164,0 -72.622768,42.287173,0 -72.622642,42.287185,0 -72.622516,42.287195,0 -72.622390,42.287205,0 -72.622263,42.287212,0 -72.622057,42.287222,0 -72.621850,42.287229,0 -72.621644,42.287233,0 -72.621436,42.287233,0 -72.621230,42.287229,0 -72.621023,42.287223,0 -72.620816,42.287212,0 -72.620611,42.287199,0 -72.620458,42.287186,0 -72.619431,42.287117,0 -72.619414,42.287039,0 -72.618151,42.286966,0 -72.618046,42.286958,0</coordinates></LinearRing></outerBoundaryIs></Polygon><Polygon><outerBoundaryIs><LinearRing><coordinates>-72.654646,42.285731,0 -72.654707,42.285950,0 -72.654901,42.286637,0 -72.655386,42.288363,0 -72.655560,42.289073,0 -72.655534,42.289036,0 -72.655244,42.288687,0 -72.654999,42.287759,0 -72.654683,42.286567,0 -72.654098,42.284366,0 -72.653915,42.283575,0 -72.653660,42.282346,0 -72.653553,42.281834,0 -72.653497,42.281389,0 -72.653514,42.281068,0 -72.653572,42.280995,0 -72.653667,42.280955,0 -72.653750,42.280969,0 -72.653708,42.281131,0 -72.653698,42.281214,0 -72.653693,42.281297,0 -72.653690,42.281381,0 -72.653692,42.281464,0 -72.653697,42.281548,0 -72.653705,42.281631,0 -72.653717,42.281714,0 -72.653732,42.281797,0 -72.653855,42.282340,0 -72.653927,42.282660,0 -72.654127,42.283691,0 -72.654161,42.283829,0 -72.654494,42.285131,0 -72.654646,42.285731,0</coordinates></LinearRing></outerBoundaryIs></Polygon></MultiGeometry></Placemark></Document></kml>